{"type": "FeatureCollection", "features": [ {"type": "Feature", "properties": {"norad_id": 34553, "name": "COSMOS 2251 DEB", "group": "cosmos-2251-debris", "lat": 71.03389335069532, "lon": -71.33962509422497, "alt_km": 703.4100095161166, "timestamp": "2025-12-26T19:22:39.303951+00:00", "meta": {"OBJECT_NAME": "COSMOS 2251 DEB", "OBJECT_ID": "1993-036UP", "EPOCH": "2025-12-26T10:49:08.948064", "MEAN_MOTION": 14.57851907, "ECCENTRICITY": 0.00190347, "INCLINATION": 74.025, "RA_OF_ASC_NODE": 165.8036, "ARG_OF_PERICENTER": 242.4865, "MEAN_ANOMALY": 147.2003, "EPHEMERIS_TYPE": 0, "CLASSIFICATION_TYPE": "U", "NORAD_CAT_ID": 34553, "ELEMENT_SET_NO": 999, "REV_AT_EPOCH": 88296, "BSTAR": 0.0012095035, "MEAN_MOTION_DOT": 5.528e-05, "MEAN_MOTION_DDOT": 0}, "tle": {"line1": "1 34553U 93036UP  25360.45079801  .00005528  00000+0  12095-2 0  9999", "line2": "2 34553  74.0250 165.8036 0019034 242.4865 147.2003 14.57851907882964"}}, "geometry": {"type": "Point", "coordinates": [-71.33962509422497, 71.03389335069532]}}, {"type": "Feature", "properties": {"norad_id": 34554, "name": "COSMOS 2251 DEB", "group": "cosmos-2251-debris", "lat": -69.76092165215275, "lon": -137.82688407286994, "alt_km": 761.3440572434765, "timestamp": "2025-12-26T19:22:39.303961+00:00", "meta": {"OBJECT_NAME": "COSMOS 2251 DEB", "OBJECT_ID": "1993-036UQ", "EPOCH": "2025-12-26T12:11:28.923360", "MEAN_MOTION": 14.37964883, "ECCENTRICITY": 0.00235746, "INCLINATION": 74.039, "RA_OF_ASC_NODE": 273.6399, "ARG_OF_PERICENTER": 333.4213, "MEAN_ANOMALY": 200.0063, "EPHEMERIS_TYPE": 0, "CLASSIFICATION_TYPE": "U", "NORAD_CAT_ID": 34554, "ELEMENT_SET_NO": 999, "REV_AT_EPOCH": 87953, "BSTAR": 0.00030966856, "MEAN_MOTION_DOT": 9.13e-06, "MEAN_MOTION_DDOT": 0}, "tle": {"line1": "1 34554U 93036UQ  25360.50797365  .00000913  00000+0  30967-3 0  9990", "line2": "2 34554  74.0390 273.6399 0023574 333.4213 200.0063 14.37964883879531"}}, "geometry": {"type": "Point", "coordinates": [-137.82688407286994, -69.76092165215275]}}, {"type": "Feature", "properties": {"norad_id": 34556, "name": "COSMOS 2251 DEB", "group": "cosmos-2251-debris", "lat": -48.96182601072666, "lon": 77.9722423682379, "alt_km": 645.1909523901832, "timestamp": "2025-12-26T19:22:39.303972+00:00", "meta": {"OBJECT_NAME": "COSMOS 2251 DEB", "OBJECT_ID": "1993-036US", "EPOCH": "2025-12-26T06:45:30.335040", "MEAN_MOTION": 14.78213795, "ECCENTRICITY": 0.00060415, "INCLINATION": 74.0152, "RA_OF_ASC_NODE": 98.2328, "ARG_OF_PERICENTER": 157.1628, "MEAN_ANOMALY": 234.2756, "EPHEMERIS_TYPE": 0, "CLASSIFICATION_TYPE": "U", "NORAD_CAT_ID": 34556, "ELEMENT_SET_NO": 999, "REV_AT_EPOCH": 88529, "BSTAR": 0.0021720792, "MEAN_MOTION_DOT": 0.00015763, "MEAN_MOTION_DDOT": 0}, "tle": {"line1": "1 34556U 93036US  25360.28160110  .00015763  00000+0  21721-2 0  9995", "line2": "2 34556  74.0152  98.2328 0006041 157.1628 234.2756 14.78213795885295"}}, "geometry": {"type": "Point", "coordinates": [77.9722423682379, -48.96182601072666]}}, {"type": "Feature", "properties": {"norad_id": 34560, "name": "COSMOS 2251 DEB", "group": "cosmos-2251-debris", "lat": -73.6270266515062, "lon": 37.41968108002835, "alt_km": 657.484459314529, "timestamp": "2025-12-26T19:22:39.303982+00:00", "meta": {"OBJECT_NAME": "COSMOS 2251 DEB", "OBJECT_ID": "1993-036UW", "EPOCH": "2025-12-26T10:16:43.012704", "MEAN_MOTION": 14.72487651, "ECCENTRICITY": 0.001351, "INCLINATION": 74.0166, "RA_OF_ASC_NODE": 115.4652, "ARG_OF_PERICENTER": 200.0495, "MEAN_ANOMALY": 224.47, "EPHEMERIS_TYPE": 0, "CLASSIFICATION_TYPE": "U", "NORAD_CAT_ID": 34560, "ELEMENT_SET_NO": 999, "REV_AT_EPOCH": 88453, "BSTAR": 0.0021429313, "MEAN_MOTION_DOT": 0.00013619, "MEAN_MOTION_DDOT": 0}, "tle": {"line1": "1 34560U 93036UW  25360.42827561  .00013619  00000+0  21429-2 0  9999", "line2": "2 34560  74.0166 115.4652 0013510 200.0495 224.4700 14.72487651884530"}}, "geometry": {"type": "Point", "coordinates": [37.41968108002835, -73.6270266515062]}}, {"type": "Feature", "properties": {"norad_id": 34563, "name": "COSMOS 2251 DEB", "group": "cosmos-2251-debris", "lat": 5.900306001565733, "lon": -4.251969037248252, "alt_km": 739.9464286684106, "timestamp": "2025-12-26T19:22:39.303992+00:00", "meta": {"OBJECT_NAME": "COSMOS 2251 DEB", "OBJECT_ID": "1993-036UZ", "EPOCH": "2025-12-26T13:53:18.840192", "MEAN_MOTION": 14.46553227, "ECCENTRICITY": 0.0013906, "INCLINATION": 74.0365, "RA_OF_ASC_NODE": 177.8701, "ARG_OF_PERICENTER": 271.2659, "MEAN_ANOMALY": 152.1001, "EPHEMERIS_TYPE": 0, "CLASSIFICATION_TYPE": "U", "NORAD_CAT_ID": 34563, "ELEMENT_SET_NO": 999, "REV_AT_EPOCH": 88397, "BSTAR": 0.00049032513, "MEAN_MOTION_DOT": 1.742e-05, "MEAN_MOTION_DDOT": 0}, "tle": {"line1": "1 34563U 93036UZ  25360.57869028  .00001742  00000+0  49033-3 0  9998", "line2": "2 34563  74.0365 177.8701 0013906 271.2659 152.1001 14.46553227883974"}}, "geometry": {"type": "Point", "coordinates": [-4.251969037248252, 5.900306001565733]}}, {"type": "Feature", "properties": {"norad_id": 34564, "name": "COSMOS 2251 DEB", "group": "cosmos-2251-debris", "lat": 17.20829690606801, "lon": -142.92748432663814, "alt_km": 750.2016246932717, "timestamp": "2025-12-26T19:22:39.304003+00:00", "meta": {"OBJECT_NAME": "COSMOS 2251 DEB", "OBJECT_ID": "1993-036VA", "EPOCH": "2025-12-26T09:34:57.415296", "MEAN_MOTION": 14.40711642, "ECCENTRICITY": 0.00194798, "INCLINATION": 74.031, "RA_OF_ASC_NODE": 212.7395, "ARG_OF_PERICENTER": 314.7158, "MEAN_ANOMALY": 107.2082, "EPHEMERIS_TYPE": 0, "CLASSIFICATION_TYPE": "U", "NORAD_CAT_ID": 34564, "ELEMENT_SET_NO": 999, "REV_AT_EPOCH": 88203, "BSTAR": 0.00022518221, "MEAN_MOTION_DOT": 6.94e-06, "MEAN_MOTION_DDOT": 0}, "tle": {"line1": "1 34564U 93036VA  25360.39927564  .00000694  00000+0  22518-3 0  9993", "line2": "2 34564  74.0310 212.7395 0019479 314.7158 107.2082 14.40711642882038"}}, "geometry": {"type": "Point", "coordinates": [-142.92748432663814, 17.20829690606801]}}, {"type": "Feature", "properties": {"norad_id": 34567, "name": "COSMOS 2251 DEB", "group": "cosmos-2251-debris", "lat": -55.70250292465265, "lon": 106.65700246960378, "alt_km": 825.61977677092, "timestamp": "2025-12-26T19:22:39.304013+00:00", "meta": {"OBJECT_NAME": "COSMOS 2251 DEB", "OBJECT_ID": "1993-036VD", "EPOCH": "2025-12-26T11:32:30.725088", "MEAN_MOTION": 14.24031886, "ECCENTRICITY": 0.00740174, "INCLINATION": 74.0412, "RA_OF_ASC_NODE": 132.0487, "ARG_OF_PERICENTER": 203.3216, "MEAN_ANOMALY": 223.5853, "EPHEMERIS_TYPE": 0, "CLASSIFICATION_TYPE": "U", "NORAD_CAT_ID": 34567, "ELEMENT_SET_NO": 999, "REV_AT_EPOCH": 87320, "BSTAR": 0.00026665836, "MEAN_MOTION_DOT": 6.05e-06, "MEAN_MOTION_DDOT": 0}, "tle": {"line1": "1 34567U 93036VD  25360.48091117  .00000605  00000+0  26666-3 0  9992", "line2": "2 34567  74.0412 132.0487 0074017 203.3216 223.5853 14.24031886873201"}}, "geometry": {"type": "Point", "coordinates": [106.65700246960378, -55.70250292465265]}}, {"type": "Feature", "properties": {"norad_id": 34569, "name": "COSMOS 2251 DEB", "group": "cosmos-2251-debris", "lat": 33.313458309520065, "lon": -18.178796236482736, "alt_km": 901.6421483388094, "timestamp": "2025-12-26T19:22:39.304023+00:00", "meta": {"OBJECT_NAME": "COSMOS 2251 DEB", "OBJECT_ID": "1993-036VF", "EPOCH": "2025-12-26T13:58:05.758176", "MEAN_MOTION": 14.24786035, "ECCENTRICITY": 0.015791, "INCLINATION": 73.9894, "RA_OF_ASC_NODE": 173.1059, "ARG_OF_PERICENTER": 358.3355, "MEAN_ANOMALY": 70.1274, "EPHEMERIS_TYPE": 0, "CLASSIFICATION_TYPE": "U", "NORAD_CAT_ID": 34569, "ELEMENT_SET_NO": 999, "REV_AT_EPOCH": 87165, "BSTAR": 0.00046481497, "MEAN_MOTION_DOT": 1.207e-05, "MEAN_MOTION_DDOT": 0}, "tle": {"line1": "1 34569U 93036VF  25360.58201109  .00001207  00000+0  46481-3 0  9995", "line2": "2 34569  73.9894 173.1059 0157910 358.3355  70.1274 14.24786035871658"}}, "geometry": {"type": "Point", "coordinates": [-18.178796236482736, 33.313458309520065]}}, {"type": "Feature", "properties": {"norad_id": 34570, "name": "COSMOS 2251 DEB", "group": "cosmos-2251-debris", "lat": -66.73609967738764, "lon": 55.828863452369845, "alt_km": 1039.5342614481524, "timestamp": "2025-12-26T19:22:39.304034+00:00", "meta": {"OBJECT_NAME": "COSMOS 2251 DEB", "OBJECT_ID": "1993-036VG", "EPOCH": "2025-12-25T13:10:11.389152", "MEAN_MOTION": 13.99841179, "ECCENTRICITY": 0.0190153, "INCLINATION": 73.9578, "RA_OF_ASC_NODE": 196.0084, "ARG_OF_PERICENTER": 75.6314, "MEAN_ANOMALY": 316.795, "EPHEMERIS_TYPE": 0, "CLASSIFICATION_TYPE": "U", "NORAD_CAT_ID": 34570, "ELEMENT_SET_NO": 999, "REV_AT_EPOCH": 85780, "BSTAR": 0.00046738, "MEAN_MOTION_DOT": 7.78e-06, "MEAN_MOTION_DDOT": 0}, "tle": {"line1": "1 34570U 93036VG  25359.54874293  .00000778  00000+0  46738-3 0  9998", "line2": "2 34570  73.9578 196.0084 0190153  75.6314 316.7950 13.99841179857804"}}, "geometry": {"type": "Point", "coordinates": [55.828863452369845, -66.73609967738764]}}, {"type": "Feature", "properties": {"norad_id": 34571, "name": "COSMOS 2251 DEB", "group": "cosmos-2251-debris", "lat": 61.78506241720111, "lon": -171.69804699208484, "alt_km": 746.2427445538779, "timestamp": "2025-12-26T19:22:39.304044+00:00", "meta": {"OBJECT_NAME": "COSMOS 2251 DEB", "OBJECT_ID": "1993-036VH", "EPOCH": "2025-12-24T20:40:26.923008", "MEAN_MOTION": 14.49017935, "ECCENTRICITY": 0.0064888, "INCLINATION": 74.0401, "RA_OF_ASC_NODE": 159.7142, "ARG_OF_PERICENTER": 192.1385, "MEAN_ANOMALY": 167.8215, "EPHEMERIS_TYPE": 0, "CLASSIFICATION_TYPE": "U", "NORAD_CAT_ID": 34571, "ELEMENT_SET_NO": 999, "REV_AT_EPOCH": 87469, "BSTAR": 0.003002, "MEAN_MOTION_DOT": 0.00011689, "MEAN_MOTION_DDOT": 0}, "tle": {"line1": "1 34571U 93036VH  25358.86142272  .00011689  00000+0  30020-2 0  9997", "line2": "2 34571  74.0401 159.7142 0064888 192.1385 167.8215 14.49017935874697"}}, "geometry": {"type": "Point", "coordinates": [-171.69804699208484, 61.78506241720111]}}]}